STARLINK-31774          
1 59622U 24080X   25209.75679027 -.00000848  00000+0 -21304-4 0  9994
2 59622  42.9998 219.2187 0001416 260.7297  99.3394 15.27573640 71546
STARLINK-31763          
1 59623U 24080Y   25210.03840505 -.00001968  00000+0 -62000-4 0  9991
2 59623  43.0006 221.3495 0001404 270.4592  89.6099 15.27582962 71538
STARLINK-31749          
1 59631U 24082A   25209.59611359  .00000190  00000+0  16410-4 0  9992
2 59631  43.0039 325.0412 0000839 261.1091  98.9666 15.27579711 70266
STARLINK-31781          
1 59632U 24082B   25209.62499139 -.00001775  00000+0 -55017-4 0  9995
2 59632  43.0024 311.0977 0001666 266.9144  93.1517 15.27572141 70681
STARLINK-31541          
1 59633U 24082C   25209.73813090 -.00000902  00000+0 -23264-4 0  9994
2 59633  43.0019 317.4483 0000979 257.7400 102.3342 15.27576689 70856
STARLINK-31797          
1 59634U 24082D   25209.61539287 -.00001677  00000+0 -51408-4 0  9996
2 59634  43.0058 325.1785 0003083 286.6542  73.3971 15.27568406 70536
STARLINK-31798          
1 59635U 24082E   25209.32057023 -.00000640  00000+0 -13715-4 0  9996
2 59635  43.0034 327.2670 0002267 260.4288  99.6307 15.27563384 70496
STARLINK-31802          
1 59636U 24082F   25209.37826145  .00000396  00000+0  23914-4 0  9999
2 59636  43.0042 326.8414 0001117 265.4908  94.5816 15.27567148 70507
STARLINK-31791          
1 59637U 24082G   25209.60378868  .00003604  00000+0  14031-3 0  9994
2 59637  42.9998 325.0942 0001647 283.1342  76.9326 15.27611060 70547
STARLINK-31727          
1 59638U 24082H   25209.65136791  .00000072  00000+0  12136-4 0  9998
2 59638  43.0039 325.4465 0001850 269.7380  90.3259 15.27579845 70592
STARLINK-31807          
1 59639U 24082J   25209.64363947  .00001646  00000+0  69302-4 0  9998
2 59639  43.0034 325.3911 0001087 264.0786  95.9942 15.27590636 70538
STARLINK-31806          
1 59640U 24082K   25210.01798213 -.00001255  00000+0 -36101-4 0  9990
2 59640  43.0031 323.0429 0001564 263.6973  96.3701 15.27575888 70607
STARLINK-31804          
1 59641U 24082L   25209.66535968 -.00001235  00000+0 -35385-4 0  9997
2 59641  42.9998 324.6990 0000776 278.1721  81.9043 15.27573754 70557
STARLINK-31660          
1 59642U 24082M   25209.24082937 -.00000910  00000+0 -23558-4 0  9993
2 59642  43.0019 287.0011 0001177 271.6502  88.4214 15.27572737 71149
STARLINK-31800          
1 59643U 24082N   25209.63722903 -.00001064  00000+0 -29164-4 0  9991
2 59643  43.0015 325.3246 0001351 249.5106 110.5601 15.27574625 70649
STARLINK-31789          
1 59644U 24082P   25210.00385450  .00054898  00000+0  19893-2 0  9994
2 59644  43.0000 322.9343 0001204 285.6637  74.4082 15.27586491 70805
STARLINK-31795          
1 59645U 24082Q   25209.24052497 -.00000772  00000+0 -18552-4 0  9998
2 59645  42.9975 268.8070 0001377 260.1480  99.9216 15.27579558 71151
STARLINK-31796          
1 59646U 24082R   25210.01027271 -.00000639  00000+0 -13711-4 0  9992
2 59646  43.0046 322.9802 0001155 272.2888  87.7831 15.27578418 70766
STARLINK-31801          
1 59647U 24082S   25209.78599744 -.00001392  00000+0 -41072-4 0  9992
2 59647  43.0021 324.7365 0001333 277.7833  82.2867 15.27572110 70618
STARLINK-31790          
1 59648U 24082T   25210.25002315  .00418768  00000+0  42483-2 0  9992
2 59648  42.9931 252.8092 0014345  63.5931 138.7465 15.63000788 71408
STARLINK-31787          
1 59650U 24082V   25209.62181744 -.00001785  00000+0 -55365-4 0  9992
2 59650  43.0048 325.2244 0002105 289.5533  70.5091 15.27572395 70747
STARLINK-31277          
1 59651U 24082W   25210.02184590 -.00001410  00000+0 -41762-4 0  9992
2 59651  43.0004 323.0689 0000825 274.1095  85.9663 15.27569330 70806
STARLINK-31799          
1 59652U 24082X   25209.99375356 -.00003851  00000+0 -13056-3 0  9994
2 59652  43.0025 312.4515 0001183 274.6271  85.4446 15.27558671 70775
STARLINK-31764          
1 59653U 24082Y   25209.60767332 -.00001572  00000+0 -47579-4 0  9998
2 59653  43.0022 325.1236 0001259 268.6386  91.4322 15.27594149 70734
STARLINK-31589          
1 59654U 24084A   25210.05842141 -.00000225  00000+0  13286-5 0  9996
2 59654  43.0009 224.5801 0001223 274.3555  85.7156 15.27577027 70202
STARLINK-31665          
1 59655U 24084B   25210.06661299 -.00000783  00000+0 -18941-4 0  9993
2 59655  42.9995 221.1816 0000952 275.6631  84.4112 15.27578171 70187
STARLINK-31912          
1 59656U 24084C   25209.43281626 -.00009156  00000+0 -32383-3 0  9993
2 59656  43.0012 228.4840 0001440 260.6983  99.3706 15.27558010 70076
STARLINK-31904          
1 59657U 24084D   25210.07640750 -.00000009  00000+0  91953-5 0  9990
2 59657  42.9997 224.7110 0000460 279.4982  80.5818 15.27579253 70106
STARLINK-31858          
1 59658U 24084E   25210.05070895  .00000099  00000+0  13121-4 0  9994
2 59658  42.9984 224.5236 0001290 303.1436  56.9291 15.27578449 70143
STARLINK-31881          
1 59659U 24084F   25209.53838038  .00000485  00000+0  27144-4 0  9996
2 59659  43.0004 224.0921 0001045 269.0969  90.9763 15.27576721 70136
