OBJECT_NAME,OBJECT_ID,EPOCH,MEAN_MOTION,ECCENTRICITY,INCLINATION,RA_OF_ASC_NODE,ARG_OF_PERICENTER,MEAN_ANOMALY,EPHEMERIS_TYPE,CLASSIFICATION_TYPE,NORAD_CAT_ID,ELEMENT_SET_NO,REV_AT_EPOCH,BSTAR,MEAN_MOTION_DOT,MEAN_MOTION_DDOT
STARLINK-31774,2024-080X,2025-07-28T18:09:46.679328,15.27573640,.0001416,42.9998,219.2187,260.7297,99.3394,0,U,59622,999,7154,-.21304E-4,-.848E-5,0
STARLINK-31763,2024-080Y,2025-07-29T00:55:18.196320,15.27582962,.0001404,43.0006,221.3495,270.4592,89.6099,0,U,59623,999,7153,-.62E-4,-.1968E-4,0
STARLINK-31749,2024-082A,2025-07-28T14:18:24.214176,15.27579711,.0000839,43.0039,325.0412,261.1091,98.9666,0,U,59631,999,7026,.1641E-4,.19E-5,0
STARLINK-31781,2024-082B,2025-07-28T14:59:59.256096,15.27572141,.0001666,43.0024,311.0977,266.9144,93.1517,0,U,59632,999,7068,-.55017E-4,-.1775E-4,0
STARLINK-31541,2024-082C,2025-07-28T17:42:54.509760,15.27576689,.0000979,43.0019,317.4483,257.7400,102.3342,0,U,59633,999,7085,-.23264E-4,-.902E-5,0
STARLINK-31797,2024-082D,2025-07-28T14:46:09.943968,15.27568406,.0003083,43.0058,325.1785,286.6542,73.3971,0,U,59634,999,7053,-.51408E-4,-.1677E-4,0
STARLINK-31798,2024-082E,2025-07-28T07:41:37.267872,15.27563384,.0002267,43.0034,327.2670,260.4288,99.6307,0,U,59635,999,7049,-.13715E-4,-.64E-5,0
STARLINK-31802,2024-082F,2025-07-28T09:04:41.789280,15.27567148,.0001117,43.0042,326.8414,265.4908,94.5816,0,U,59636,999,7050,.23914E-4,.396E-5,0
STARLINK-31791,2024-082G,2025-07-28T14:29:27.341952,15.27611060,.0001647,42.9998,325.0942,283.1342,76.9326,0,U,59637,999,7054,.14031E-3,.3604E-4,0
STARLINK-31727,2024-082H,2025-07-28T15:37:58.187424,15.27579845,.000185,43.0039,325.4465,269.7380,90.3259,0,U,59638,999,7059,.12136E-4,.72E-6,0
STARLINK-31807,2024-082J,2025-07-28T15:26:50.450208,15.27590636,.0001087,43.0034,325.3911,264.0786,95.9942,0,U,59639,999,7053,.69302E-4,.1646E-4,0
STARLINK-31806,2024-082K,2025-07-29T00:25:53.656032,15.27575888,.0001564,43.0031,323.0429,263.6973,96.3701,0,U,59640,999,7060,-.36101E-4,-.1255E-4,0
STARLINK-31804,2024-082L,2025-07-28T15:58:07.076352,15.27573754,.0000776,42.9998,324.6990,278.1721,81.9043,0,U,59641,999,7055,-.35385E-4,-.1235E-4,0
STARLINK-31660,2024-082M,2025-07-28T05:46:47.657568,15.27572737,.0001177,43.0019,287.0011,271.6502,88.4214,0,U,59642,999,7114,-.23558E-4,-.91E-5,0
STARLINK-31800,2024-082N,2025-07-28T15:17:36.588192,15.27574625,.0001351,43.0015,325.3246,249.5106,110.5601,0,U,59643,999,7064,-.29164E-4,-.1064E-4,0
STARLINK-31789,2024-082P,2025-07-29T00:05:33.028800,15.27586491,.0001204,43.0000,322.9343,285.6637,74.4082,0,U,59644,999,7080,.19893E-2,.54898E-3,0
STARLINK-31795,2024-082Q,2025-07-28T05:46:21.357408,15.27579558,.0001377,42.9975,268.8070,260.1480,99.9216,0,U,59645,999,7115,-.18552E-4,-.772E-5,0
STARLINK-31796,2024-082R,2025-07-29T00:14:47.562144,15.27578418,.0001155,43.0046,322.9802,272.2888,87.7831,0,U,59646,999,7076,-.13711E-4,-.639E-5,0
STARLINK-31801,2024-082S,2025-07-28T18:51:50.178816,15.27572110,.0001333,43.0021,324.7365,277.7833,82.2867,0,U,59647,999,7061,-.41072E-4,-.1392E-4,0
STARLINK-31790,2024-082T,2025-07-29T06:00:02.000160,15.63000788,.0014345,42.9931,252.8092,63.5931,138.7465,0,U,59648,999,7140,.42483E-2,.418768E-2,0
STARLINK-31787,2024-082V,2025-07-28T14:55:25.026816,15.27572395,.0002105,43.0048,325.2244,289.5533,70.5091,0,U,59650,999,7074,-.55365E-4,-.1785E-4,0
STARLINK-31277,2024-082W,2025-07-29T00:31:27.485760,15.27569330,.0000825,43.0004,323.0689,274.1095,85.9663,0,U,59651,999,7080,-.41762E-4,-.141E-4,0
STARLINK-31799,2024-082X,2025-07-28T23:51:00.307584,15.27558671,.0001183,43.0025,312.4515,274.6271,85.4446,0,U,59652,999,7077,-.13056E-3,-.3851E-4,0
STARLINK-31764,2024-082Y,2025-07-28T14:35:02.974848,15.27594149,.0001259,43.0022,325.1236,268.6386,91.4322,0,U,59653,999,7073,-.47579E-4,-.1572E-4,0
STARLINK-31589,2024-084A,2025-07-29T01:24:07.609824,15.27577027,.0001223,43.0009,224.5801,274.3555,85.7156,0,U,59654,999,7020,.13286E-5,-.225E-5,0
STARLINK-31665,2024-084B,2025-07-29T01:35:55.362336,15.27578171,.0000952,42.9995,221.1816,275.6631,84.4112,0,U,59655,999,7018,-.18941E-4,-.783E-5,0
STARLINK-31912,2024-084C,2025-07-28T10:23:15.324864,15.27558010,.000144,43.0012,228.4840,260.6983,99.3706,0,U,59656,999,7007,-.32383E-3,-.9156E-4,0
STARLINK-31904,2024-084D,2025-07-29T01:50:01.608000,15.27579253,.000046,42.9997,224.7110,279.4982,80.5818,0,U,59657,999,7010,.91953E-5,-.9E-7,0
STARLINK-31858,2024-084E,2025-07-29T01:13:01.253280,15.27578449,.000129,42.9984,224.5236,303.1436,56.9291,0,U,59658,999,7014,.13121E-4,.99E-6,0
STARLINK-31881,2024-084F,2025-07-28T12:55:16.064832,15.27576721,.0001045,43.0004,224.0921,269.0969,90.9763,0,U,59659,999,7013,.27144E-4,.485E-5,0
